{"type": "FeatureCollection", "features": [ {"type": "Feature", "properties": {"norad_id": 40664, "name": "SKY MEXICO-1", "group": "intelsat", "lat": 0.006966962389036155, "lon": 154.4499283763485, "alt_km": 35792.45765782354, "timestamp": "2025-12-20T09:36:01.299678+00:00", "meta": {"OBJECT_NAME": "SKY MEXICO-1", "OBJECT_ID": "2015-026B", "EPOCH": "2025-12-20T02:35:02.288832", "MEAN_MOTION": 1.00272052, "ECCENTRICITY": 0.0002321, "INCLINATION": 0.0136, "RA_OF_ASC_NODE": 336.9822, "ARG_OF_PERICENTER": 308.4655, "MEAN_ANOMALY": 123.498, "EPHEMERIS_TYPE": 0, "CLASSIFICATION_TYPE": "U", "NORAD_CAT_ID": 40664, "ELEMENT_SET_NO": 999, "REV_AT_EPOCH": 3865, "BSTAR": 0, "MEAN_MOTION_DOT": -2.1e-06, "MEAN_MOTION_DDOT": 0}, "tle": {"line1": "1 40664U 15026B   25354.10766538 -.00000210  00000+0  00000+0 0  9991", "line2": "2 40664   0.0136 336.9822 0002321 308.4655 123.4980  1.00272052 38652"}}, "geometry": {"type": "Point", "coordinates": [154.4499283763485, 0.006966962389036155]}}, {"type": "Feature", "properties": {"norad_id": 40874, "name": "INTELSAT 34 (IS-34)", "group": "intelsat", "lat": -0.0074037294739972516, "lon": 177.73156386940417, "alt_km": 35783.566008544556, "timestamp": "2025-12-20T09:36:01.299689+00:00", "meta": {"OBJECT_NAME": "INTELSAT 34 (IS-34)", "OBJECT_ID": "2015-039A", "EPOCH": "2025-12-19T19:50:51.586080", "MEAN_MOTION": 1.00272065, "ECCENTRICITY": 6.62e-05, "INCLINATION": 0.0164, "RA_OF_ASC_NODE": 342.9377, "ARG_OF_PERICENTER": 169.2315, "MEAN_ANOMALY": 178.7132, "EPHEMERIS_TYPE": 0, "CLASSIFICATION_TYPE": "U", "NORAD_CAT_ID": 40874, "ELEMENT_SET_NO": 999, "REV_AT_EPOCH": 3782, "BSTAR": 0, "MEAN_MOTION_DOT": -2.61e-06, "MEAN_MOTION_DDOT": 0}, "tle": {"line1": "1 40874U 15039A   25353.82698595 -.00000261  00000+0  00000+0 0  9999", "line2": "2 40874   0.0164 342.9377 0000662 169.2315 178.7132  1.00272065 37824"}}, "geometry": {"type": "Point", "coordinates": [177.73156386940417, -0.0074037294739972516]}}, {"type": "Feature", "properties": {"norad_id": 41581, "name": "INTELSAT 31 (IS-31)", "group": "intelsat", "lat": -0.002394196764817391, "lon": 138.1602700291681, "alt_km": 35782.891497949626, "timestamp": "2025-12-20T09:36:01.299701+00:00", "meta": {"OBJECT_NAME": "INTELSAT 31 (IS-31)", "OBJECT_ID": "2016-035A", "EPOCH": "2025-12-20T05:04:10.677216", "MEAN_MOTION": 1.00271438, "ECCENTRICITY": 0.0001965, "INCLINATION": 0.0255, "RA_OF_ASC_NODE": 272.537, "ARG_OF_PERICENTER": 291.8357, "MEAN_ANOMALY": 225.6712, "EPHEMERIS_TYPE": 0, "CLASSIFICATION_TYPE": "U", "NORAD_CAT_ID": 41581, "ELEMENT_SET_NO": 999, "REV_AT_EPOCH": 3488, "BSTAR": 0, "MEAN_MOTION_DOT": -1.27e-06, "MEAN_MOTION_DDOT": 0}, "tle": {"line1": "1 41581U 16035A   25354.21123469 -.00000127  00000+0  00000+0 0  9990", "line2": "2 41581   0.0255 272.5370 0001965 291.8357 225.6712  1.00271438 34889"}}, "geometry": {"type": "Point", "coordinates": [138.1602700291681, -0.002394196764817391]}}, {"type": "Feature", "properties": {"norad_id": 41747, "name": "INTELSAT 36 (IS-36)", "group": "intelsat", "lat": -0.031838109321410284, "lon": -58.29267022135489, "alt_km": 35782.56042057956, "timestamp": "2025-12-20T09:36:01.299713+00:00", "meta": {"OBJECT_NAME": "INTELSAT 36 (IS-36)", "OBJECT_ID": "2016-053A", "EPOCH": "2025-12-19T22:08:53.364768", "MEAN_MOTION": 1.00270121, "ECCENTRICITY": 0.0001172, "INCLINATION": 0.0108, "RA_OF_ASC_NODE": 359.0109, "ARG_OF_PERICENTER": 338.9337, "MEAN_ANOMALY": 151.5298, "EPHEMERIS_TYPE": 0, "CLASSIFICATION_TYPE": "U", "NORAD_CAT_ID": 41747, "ELEMENT_SET_NO": 999, "REV_AT_EPOCH": 3415, "BSTAR": 0, "MEAN_MOTION_DOT": 0, "MEAN_MOTION_DDOT": 0}, "tle": {"line1": "1 41747U 16053A   25353.92283987  .00000000  00000+0  00000+0 0  9992", "line2": "2 41747   0.0108 359.0109 0001172 338.9337 151.5298  1.00270121 34156"}}, "geometry": {"type": "Point", "coordinates": [-58.29267022135489, -0.031838109321410284]}}, {"type": "Feature", "properties": {"norad_id": 41945, "name": "INTELSAT 32E (IS-32E)", "group": "intelsat", "lat": 0.02260896680625128, "lon": -169.95714313420422, "alt_km": 35789.5532615007, "timestamp": "2025-12-20T09:36:01.299725+00:00", "meta": {"OBJECT_NAME": "INTELSAT 32E (IS-32E)", "OBJECT_ID": "2017-007B", "EPOCH": "2025-12-19T06:12:37.307232", "MEAN_MOTION": 1.00269829, "ECCENTRICITY": 7.1e-05, "INCLINATION": 0.0325, "RA_OF_ASC_NODE": 74.0804, "ARG_OF_PERICENTER": 315.5885, "MEAN_ANOMALY": 108.4146, "EPHEMERIS_TYPE": 0, "CLASSIFICATION_TYPE": "U", "NORAD_CAT_ID": 41945, "ELEMENT_SET_NO": 999, "REV_AT_EPOCH": 3242, "BSTAR": 0, "MEAN_MOTION_DOT": -2.44e-06, "MEAN_MOTION_DDOT": 0}, "tle": {"line1": "1 41945U 17007B   25353.25876513 -.00000244  00000+0  00000+0 0  9992", "line2": "2 41945   0.0325  74.0804 0000710 315.5885 108.4146  1.00269829 32423"}}, "geometry": {"type": "Point", "coordinates": [-169.95714313420422, 0.02260896680625128]}}, {"type": "Feature", "properties": {"norad_id": 42818, "name": "INTELSAT 35E (IS-35E)", "group": "intelsat", "lat": -0.005610461667815452, "lon": -161.27729807425445, "alt_km": 35783.95613156708, "timestamp": "2025-12-20T09:36:01.299737+00:00", "meta": {"OBJECT_NAME": "INTELSAT 35E (IS-35E)", "OBJECT_ID": "2017-041A", "EPOCH": "2025-12-20T02:47:38.581728", "MEAN_MOTION": 1.00271193, "ECCENTRICITY": 0.0001847, "INCLINATION": 0.0187, "RA_OF_ASC_NODE": 21.3216, "ARG_OF_PERICENTER": 250.2139, "MEAN_ANOMALY": 184.8437, "EPHEMERIS_TYPE": 0, "CLASSIFICATION_TYPE": "U", "NORAD_CAT_ID": 42818, "ELEMENT_SET_NO": 999, "REV_AT_EPOCH": 3102, "BSTAR": 0, "MEAN_MOTION_DOT": -2.14e-06, "MEAN_MOTION_DDOT": 0}, "tle": {"line1": "1 42818U 17041A   25354.11641877 -.00000214  00000+0  00000+0 0  9996", "line2": "2 42818   0.0187  21.3216 0001847 250.2139 184.8437  1.00271193 31023"}}, "geometry": {"type": "Point", "coordinates": [-161.27729807425445, -0.005610461667815452]}}, {"type": "Feature", "properties": {"norad_id": 42950, "name": "INTELSAT 37E (IS-37E)", "group": "intelsat", "lat": -0.020072578835947947, "lon": -144.80975924114475, "alt_km": 35777.73909683735, "timestamp": "2025-12-20T09:36:01.299748+00:00", "meta": {"OBJECT_NAME": "INTELSAT 37E (IS-37E)", "OBJECT_ID": "2017-059A", "EPOCH": "2025-12-20T03:07:38.561088", "MEAN_MOTION": 1.00269249, "ECCENTRICITY": 0.0002971, "INCLINATION": 0.0268, "RA_OF_ASC_NODE": 21.4208, "ARG_OF_PERICENTER": 237.6213, "MEAN_ANOMALY": 218.8235, "EPHEMERIS_TYPE": 0, "CLASSIFICATION_TYPE": "U", "NORAD_CAT_ID": 42950, "ELEMENT_SET_NO": 999, "REV_AT_EPOCH": 3027, "BSTAR": 0, "MEAN_MOTION_DOT": 0, "MEAN_MOTION_DDOT": 0}, "tle": {"line1": "1 42950U 17059A   25354.13030742  .00000000  00000+0  00000+0 0  9999", "line2": "2 42950   0.0268  21.4208 0002971 237.6213 218.8235  1.00269249 30272"}}, "geometry": {"type": "Point", "coordinates": [-144.80975924114475, -0.020072578835947947]}}, {"type": "Feature", "properties": {"norad_id": 43632, "name": "AZERSPACE 2 (IS-38)", "group": "intelsat", "lat": -0.02921347385581702, "lon": -81.65448703604967, "alt_km": 35781.423438511396, "timestamp": "2025-12-20T09:36:01.299760+00:00", "meta": {"OBJECT_NAME": "AZERSPACE 2 (IS-38)", "OBJECT_ID": "2018-074A", "EPOCH": "2025-12-20T03:10:21.406944", "MEAN_MOTION": 1.00270783, "ECCENTRICITY": 0.0001162, "INCLINATION": 0.0088, "RA_OF_ASC_NODE": 38.2345, "ARG_OF_PERICENTER": 236.084, "MEAN_ANOMALY": 267.3565, "EPHEMERIS_TYPE": 0, "CLASSIFICATION_TYPE": "U", "NORAD_CAT_ID": 43632, "ELEMENT_SET_NO": 999, "REV_AT_EPOCH": 2665, "BSTAR": 0, "MEAN_MOTION_DOT": 1.6e-06, "MEAN_MOTION_DDOT": 0}, "tle": {"line1": "1 43632U 18074A   25354.13219221  .00000160  00000+0  00000+0 0  9993", "line2": "2 43632   0.0088  38.2345 0001162 236.0840 267.3565  1.00270783 26655"}}, "geometry": {"type": "Point", "coordinates": [-81.65448703604967, -0.02921347385581702]}}, {"type": "Feature", "properties": {"norad_id": 43633, "name": "HORIZONS-3E", "group": "intelsat", "lat": -0.0024809975929098037, "lon": 42.20981418759663, "alt_km": 35786.88472109006, "timestamp": "2025-12-20T09:36:01.299771+00:00", "meta": {"OBJECT_NAME": "HORIZONS-3E", "OBJECT_ID": "2018-074B", "EPOCH": "2025-12-20T02:16:38.768160", "MEAN_MOTION": 1.00269754, "ECCENTRICITY": 6.34e-05, "INCLINATION": 0.0095, "RA_OF_ASC_NODE": 238.269, "ARG_OF_PERICENTER": 69.0895, "MEAN_ANOMALY": 344.7114, "EPHEMERIS_TYPE": 0, "CLASSIFICATION_TYPE": "U", "NORAD_CAT_ID": 43633, "ELEMENT_SET_NO": 999, "REV_AT_EPOCH": 2654, "BSTAR": 0, "MEAN_MOTION_DOT": 0, "MEAN_MOTION_DDOT": 0}, "tle": {"line1": "1 43633U 18074B   25354.09489315  .00000000  00000+0  00000+0 0  9995", "line2": "2 43633   0.0095 238.2690 0000634  69.0895 344.7114  1.00269754 26540"}}, "geometry": {"type": "Point", "coordinates": [42.20981418759663, -0.0024809975929098037]}}, {"type": "Feature", "properties": {"norad_id": 44333, "name": "AT&T T-16", "group": "intelsat", "lat": 0.03463413852266174, "lon": 132.3634862609122, "alt_km": 35781.929380449765, "timestamp": "2025-12-20T09:36:01.299783+00:00", "meta": {"OBJECT_NAME": "AT&T T-16", "OBJECT_ID": "2019-034A", "EPOCH": "2025-12-19T13:25:39.897984", "MEAN_MOTION": 1.00270126, "ECCENTRICITY": 0.00011499, "INCLINATION": 0.0216, "RA_OF_ASC_NODE": 60.6149, "ARG_OF_PERICENTER": 88.5847, "MEAN_ANOMALY": 39.7646, "EPHEMERIS_TYPE": 0, "CLASSIFICATION_TYPE": "U", "NORAD_CAT_ID": 44333, "ELEMENT_SET_NO": 999, "REV_AT_EPOCH": 2383, "BSTAR": 0, "MEAN_MOTION_DOT": -9.1e-07, "MEAN_MOTION_DDOT": 0}, "tle": {"line1": "1 44333U 19034A   25353.55948956 -.00000091  00000+0  00000+0 0  9992", "line2": "2 44333   0.0216  60.6149 0001149  88.5847  39.7646  1.00270126 23839"}}, "geometry": {"type": "Point", "coordinates": [132.3634862609122, 0.03463413852266174]}}]}